{"type":"FeatureCollection","crs":{"type":"name","properties":{"name":"urn:ogc:def:crs:OGC:1.3:CRS84"}},"features":[{"type":"Feature","properties":{"shapeName":"Centre","shapeISO":"BF-03","shapeID":"92566538B14190085014946","shapeGroup":"BFA","shapeType":"ADM1"},"geometry":{"type":"Polygon","coordinates":[[[-1.070810043999927,12.178586254000038],[-1.096569975999955,12.26640022600003],[-1.27955372699995,12.355055959000026],[-1.25315188899998,12.492178858000045],[-1.449417599999947,12.465497869000046],[-1.474780059999944,12.568789820000063],[-1.575644307999937,12.55213047500007],[-1.60328719499995,12.68485736100007],[-1.728419538999958,12.576686924000057],[-1.681461389999924,12.424216745000024],[-1.813250633999928,12.371251640000025],[-1.791226890999951,12.09351515000003],[-1.68996918199997,12.051309512000046],[-1.487887172999933,12.204348229000061],[-1.405460190999975,12.10611571100003],[-1.070810043999927,12.178586254000038]]]}},{"type":"Feature","properties":{"shapeName":"Boucle du Mouhoun","shapeISO":"BF-01","shapeID":"92566538B5930876876994","shapeGroup":"BFA","shapeType":"ADM1"},"geometry":{"type":"Polygon","coordinates":[[[-2.647254063999981,13.476234256000055],[-3.27964,13.71579],[-3.23777,13.30563],[-3.43149,13.26338],[-3.43322,13.16286],[-3.96085,13.38282],[-3.91584,13.44456],[-3.97197,13.5012],[-4.35112,13.14099],[-4.23195,12.94983],[-4.23334,12.75547],[-4.4895,12.71048],[-4.39346,12.53189],[-4.42104,12.31431],[-4.48444,12.32283],[-4.650181592999957,12.061809374000063],[-4.463299872999926,12.077381904000049],[-4.46624940199996,11.726429851000034],[-4.325393881999958,11.729875188000051],[-4.237876759999949,11.928276260000075],[-4.048737118999952,11.958849690000022],[-3.845946162999951,11.755626918000075],[-3.568112357999951,11.773552994000056],[-3.365053232999969,11.696211978000065],[-3.420295055999929,11.61979010400006],[-3.284933585999966,11.48622251300003],[-3.051986891999945,11.58619423600004],[-2.846454861999973,11.538967826000032],[-2.873252660999981,11.246851641000035],[-2.516193782999949,11.410467279000045],[-2.671247874999949,11.501179854000043],[-2.756838377999941,11.730040196000061],[-2.918061550999937,11.78287824000006],[-2.822267985999929,11.87539319800004],[-2.928562072999966,12.063495492000072],[-2.804012039999975,12.070182569000053],[-2.87923359399997,12.301544169000067],[-2.721801171999971,12.51055791400006],[-2.762159746999941,12.629828799000052],[-2.64027927799998,12.751987968000037],[-2.728702398999928,12.799635377000072],[-2.713152199999968,13.103314630000057],[-2.580100970999979,13.113161147000028],[-2.443397205999929,13.281905782000024],[-2.608254386999931,13.311431008000056],[-2.647254063999981,13.476234256000055]]]}},{"type":"Feature","properties":{"shapeName":"Cascades","shapeISO":"BF-02","shapeID":"92566538B65696039363280","shapeGroup":"BFA","shapeType":"ADM1"},"geometry":{"type":"Polygon","coordinates":[[[-3.673098961999926,10.767335493000076],[-3.795036842999934,10.838920242000029],[-3.921649917999957,10.669845748000057],[-4.082379132999961,10.795266360000028],[-4.248057418999963,10.698043454000072],[-4.382388997999954,10.733912763000035],[-4.469885320999936,10.879030836000027],[-4.665352550999955,10.776866188000042],[-4.768222133999927,10.874413176000076],[-4.957127906999972,10.891670537000039],[-5.193239650999942,10.789039419000062],[-5.273530302999973,10.921625478000067],[-5.493601871999942,11.020382384000072],[-5.42231,10.8526],[-5.51751,10.42334],[-5.37422,10.28586],[-5.11106,10.30468],[-4.96785,9.89244],[-4.78874,9.8334],[-4.80983,9.76806],[-4.69451,9.6782],[-4.51932,9.74601],[-4.50792,9.64675],[-4.3187,9.5996],[-4.27111,9.75697],[-3.896665920999965,9.903841931000045],[-3.99997861199995,10.040588360000072],[-3.73843689499995,10.235847869000054],[-3.781848544999946,10.346169658000065],[-3.692721816999949,10.47728389100007],[-3.701466960999937,10.642876946000058],[-3.791761624999936,10.726881218000074],[-3.673098961999926,10.767335493000076]]]}},{"type":"Feature","properties":{"shapeName":"Centre-Est","shapeISO":"BF-04","shapeID":"92566538B37033565003987","shapeGroup":"BFA","shapeType":"ADM1"},"geometry":{"type":"Polygon","coordinates":[[[-0.240573152999957,12.55972343600007],[-0.42748230899997,12.479383632000065],[-0.631302926999979,12.541456531000051],[-0.415579856999955,12.081113869000035],[-0.897522892999973,11.778400802000021],[-0.815552329999946,11.604363910000075],[-0.558777976999977,11.483899593000046],[-0.562665488999926,11.393608031000042],[-0.635551590999967,11.412152013000025],[-0.763631121999936,11.208188369000027],[-0.62115,10.90218],[-0.27328,11.1733],[0.42407460000004,11.024381512000048],[0.573000106000052,11.21648175100006],[0.50674986100006,11.695464702000038],[0.061294041000053,11.806052201000057],[0.016087778000042,11.748700477000057],[-6.803399998e-05,11.853805475000058],[-0.142793825999945,11.933398938000039],[-0.126123107999945,12.069661519000022],[-0.004121593999969,12.116488256000025],[-0.208458964999977,12.285553460000074],[-0.144016162999947,12.396459567000022],[-0.264804758999958,12.456516484000076],[-0.240573152999957,12.55972343600007]]]}},{"type":"Feature","properties":{"shapeName":"Centre-Nord","shapeISO":"BF-05","shapeID":"92566538B59117792838125","shapeGroup":"BFA","shapeType":"ADM1"},"geometry":{"type":"Polygon","coordinates":[[[-0.240573152999957,12.55972343600007],[-0.213014972999929,12.81045940000007],[-0.390477576999956,13.02069077300007],[-0.220522449999976,13.64715191700003],[-0.382839328999978,13.641337362000058],[-0.617850898999961,13.99765880700005],[-1.094270482999946,13.769342121000022],[-1.46423131399996,13.772344141000076],[-1.546485306999955,13.891216985000028],[-1.676304565999942,13.888257507000048],[-1.739265037999928,13.698540839000032],[-1.90496935799996,13.615641465000067],[-1.697802390999925,13.07925496300004],[-1.479299818999948,12.883949697000048],[-1.152099291999946,12.781978421000076],[-1.136770374999969,12.63108545600005],[-0.995755513999939,12.679198345000032],[-0.870654894999973,12.542872454000076],[-0.706530664999946,12.705517231000044],[-0.640300089999926,12.544027680000056],[-0.54486813699998,12.50986060200006],[-0.240573152999957,12.55972343600007]]]}},{"type":"Feature","properties":{"shapeName":"Centre-Ouest","shapeISO":"BF-06","shapeID":"92566538B57875752774417","shapeGroup":"BFA","shapeType":"ADM1"},"geometry":{"type":"Polygon","coordinates":[[[-1.813250633999928,12.371251640000025],[-2.079176693999955,12.31512209400006],[-2.000043408999943,12.470874562000063],[-1.785012508999955,12.488872054000069],[-1.989357585999926,12.70694297600005],[-2.480853856999943,12.61623540200003],[-2.434167358999957,12.702820719000044],[-2.525957644999949,12.692130396000039],[-2.547485802999972,12.84172516600006],[-2.762159746999941,12.629828799000052],[-2.721801171999971,12.51055791400006],[-2.885195514999964,12.274116436000043],[-2.804012039999975,12.070182569000053],[-2.928562072999966,12.063495492000072],[-2.822267985999929,11.87539319800004],[-2.923159998999949,11.800561239000046],[-2.728920405999929,11.703723467000032],[-2.671247874999949,11.501179854000043],[-2.516193782999949,11.410467279000045],[-2.802254868999967,11.283452502000046],[-2.786290450999957,11.138420315000076],[-2.710206452999955,11.20344129700004],[-2.607096745999968,11.119734263000055],[-2.715943332999927,10.996498441000028],[-1.427203922999979,11.014335626000047],[-1.662713721999978,11.168306667000024],[-1.571823691999953,11.395193935000066],[-1.309292242999959,11.546898317000057],[-1.80116936099995,11.962480776000064],[-1.965861067999924,11.923356435000073],[-2.051440046999971,12.007278737000036],[-1.985393006999971,12.123898172000054],[-1.826851688999966,12.159541267000066],[-1.813250633999928,12.371251640000025]]]}},{"type":"Feature","properties":{"shapeName":"Centre-Sud","shapeISO":"BF-07","shapeID":"92566538B49759193106183","shapeGroup":"BFA","shapeType":"ADM1"},"geometry":{"type":"Polygon","coordinates":[[[-1.826851688999966,12.159541267000066],[-1.985393006999971,12.123898172000054],[-2.051440046999971,12.007278737000036],[-1.965861067999924,11.923356435000073],[-1.80116936099995,11.962480776000064],[-1.309292242999959,11.546898317000057],[-1.571823691999953,11.395193935000066],[-1.660903582999936,11.165685329000041],[-1.39737,10.99025],[-0.683316584999943,10.992682999000067],[-0.746215495999934,11.288948567000034],[-0.632175802999939,11.414980588000049],[-0.562665488999926,11.393608031000042],[-0.558777976999977,11.483899593000046],[-0.90210236799993,11.68953865800006],[-0.824772658999962,11.872674696000047],[-1.036671540999976,12.154877503000023],[-1.405460190999975,12.10611571100003],[-1.487887172999933,12.204348229000061],[-1.68996918199997,12.051309512000046],[-1.826851688999966,12.159541267000066]]]}},{"type":"Feature","properties":{"shapeName":"Est","shapeISO":"BF-08","shapeID":"92566538B57532963969301","shapeGroup":"BFA","shapeType":"ADM1"},"geometry":{"type":"Polygon","coordinates":[[[0.42407460000004,11.024381512000048],[0.50285,11.00908],[0.49468,10.931],[0.91216,10.99649],[0.97864,11.09045],[1.11017,11.0304],[1.05094,11.12772],[1.16005,11.16437],[1.12925,11.25649],[1.32512,11.28988],[1.4401,11.47383],[1.62047,11.3904],[2.0104,11.42333],[2.30573,11.67442],[2.4054,11.90161],[2.06642,12.35094],[2.27428,12.42837],[2.10416,12.73089],[1.97751,12.73717],[1.86544,12.60539],[1.57605,12.63314],[1.11808,12.99984],[0.9975,12.99965],[0.992102933000069,13.08399926800007],[0.59421984200003,12.96993330600003],[0.425580030000049,13.175755189000029],[0.264627294000036,13.228758395000057],[0.062228987000026,13.576354550000076],[-0.179593981999972,13.57577012300004],[-0.320466214999954,13.413262174000067],[-0.272825329999932,13.369722404000072],[-0.39059029799995,13.000451282000029],[-0.213014972999929,12.81045940000007],[-0.264804758999958,12.456516484000076],[-0.144016162999947,12.396459567000022],[-0.208458964999977,12.285553460000074],[-0.004121593999969,12.116488256000025],[-0.126123107999945,12.069661519000022],[-0.146164946999932,11.942602559000022],[-6.803399998e-05,11.853805475000058],[0.016087778000042,11.748700477000057],[0.061294041000053,11.806052201000057],[0.50674986100006,11.695464702000038],[0.573000106000052,11.21648175100006],[0.42407460000004,11.024381512000048]]]}},{"type":"Feature","properties":{"shapeName":"Hauts-Bassins","shapeISO":"BF-09","shapeID":"92566538B19127906733451","shapeGroup":"BFA","shapeType":"ADM1"},"geometry":{"type":"Polygon","coordinates":[[[-4.463299872999926,12.077381904000049],[-5.40932,11.83188],[-5.26398,11.7637],[-5.29909,11.61928],[-5.22324,11.5853],[-5.19953,11.43251],[-5.3414,11.1366],[-5.493601871999942,11.020382384000072],[-5.273530302999973,10.921625478000067],[-5.193239650999942,10.789039419000062],[-4.957127906999972,10.891670537000039],[-4.768222133999927,10.874413176000076],[-4.665352550999955,10.776866188000042],[-4.469885320999936,10.879030836000027],[-4.382388997999954,10.733912763000035],[-4.248057418999963,10.698043454000072],[-4.082379132999961,10.795266360000028],[-3.921649917999957,10.669845748000057],[-3.795036842999934,10.838920242000029],[-3.64515440699995,10.889656452000054],[-3.495960732999947,11.158380145000024],[-3.28998495899998,11.201917104000074],[-3.217720953999958,11.347807327000055],[-2.840320198999962,11.308637438000062],[-2.848150941999961,11.53989124900005],[-3.051986891999945,11.58619423600004],[-3.284933585999966,11.48622251300003],[-3.420295055999929,11.61979010400006],[-3.365053232999969,11.696211978000065],[-3.568112357999951,11.773552994000056],[-3.845946162999951,11.755626918000075],[-4.048737118999952,11.958849690000022],[-4.237876759999949,11.928276260000075],[-4.297132636999947,11.746895606000066],[-4.442859091999935,11.709469065000064],[-4.463299872999926,12.077381904000049]]]}},{"type":"Feature","properties":{"shapeName":"Nord","shapeISO":"BF-10","shapeID":"92566538B60283727543208","shapeGroup":"BFA","shapeType":"ADM1"},"geometry":{"type":"Polygon","coordinates":[[[-2.64027927799998,12.751987968000037],[-2.519714615999931,12.83307793800003],[-2.525957644999949,12.692130396000039],[-2.434167358999957,12.702820719000044],[-2.480853856999943,12.61623540200003],[-2.149949825999954,12.70833816000004],[-1.979076369999973,12.673184544000037],[-1.860347513999955,12.876897906000067],[-1.532084794999946,12.947708653000063],[-1.84357168799994,13.345764854000038],[-1.90496935799996,13.615641465000067],[-1.72895389699994,13.719535465000035],[-1.885316322999927,13.88585598700007],[-1.86818563199995,14.000230008000074],[-2.47647,14.29787],[-2.83703,14.06063],[-2.87197,13.65534],[-2.953705422999974,13.62678085300007],[-2.647254063999981,13.476234256000055],[-2.608254386999931,13.311431008000056],[-2.443397205999929,13.281905782000024],[-2.580100970999979,13.113161147000028],[-2.713152199999968,13.103314630000057],[-2.728702398999928,12.799635377000072],[-2.64027927799998,12.751987968000037]]]}},{"type":"Feature","properties":{"shapeName":"Plateau Central","shapeISO":"BF-11","shapeID":"92566538B74906977122081","shapeGroup":"BFA","shapeType":"ADM1"},"geometry":{"type":"Polygon","coordinates":[[[-1.096569975999955,12.26640022600003],[-0.862611146999939,11.876488421000033],[-0.699665642999946,11.887156220000065],[-0.411943475999976,12.095599155000059],[-0.676568412999927,12.700988709000057],[-0.77421398599995,12.687912835000077],[-0.74286458499995,12.620229702000074],[-0.870654894999973,12.542872454000076],[-0.995755513999939,12.679198345000032],[-1.142657350999968,12.635366004000048],[-1.15454518599995,12.783758223000063],[-1.535945539999943,12.925770152000041],[-1.936654444999931,12.812377312000024],[-1.975548100999958,12.721882239000024],[-1.785012508999955,12.488872054000069],[-2.000043408999943,12.470874562000063],[-2.079176693999955,12.31512209400006],[-1.681461389999924,12.424216745000024],[-1.728419538999958,12.576686924000057],[-1.60328719499995,12.68485736100007],[-1.575644307999937,12.55213047500007],[-1.474780059999944,12.568789820000063],[-1.449417599999947,12.465497869000046],[-1.25315188899998,12.492178858000045],[-1.27955372699995,12.355055959000026],[-1.096569975999955,12.26640022600003]]]}},{"type":"Feature","properties":{"shapeName":"Sahel","shapeISO":"BF-12","shapeID":"92566538B81581720767285","shapeGroup":"BFA","shapeType":"ADM1"},"geometry":{"type":"Polygon","coordinates":[[[-0.234220351999966,13.508512415000041],[-0.179593981999972,13.57577012300004],[0.062228987000026,13.576354550000076],[0.264627294000036,13.228758395000057],[0.425580030000049,13.175755189000029],[0.59421984200003,12.96993330600003],[0.992102933000069,13.08399926800007],[0.99182,13.37092],[1.28297,13.3522],[0.7726,13.69205],[0.61902,13.69906],[0.39879,14.02787],[0.38594,14.28867],[0.168,14.52335],[0.22935,14.98967],[-0.7192,15.0804],[-1.08786,14.79012],[-1.67491,14.50689],[-1.97537,14.48088],[-1.99367,14.19576],[-2.10581874899998,14.150280506000058],[-1.86818563199995,14.000230008000074],[-1.885316322999927,13.88585598700007],[-1.757808786999931,13.762581982000029],[-1.676304565999942,13.888257507000048],[-1.548334648999969,13.891693557000053],[-1.46423131399996,13.772344141000076],[-1.094270482999946,13.769342121000022],[-0.617850898999961,13.99765880700005],[-0.382839328999978,13.641337362000058],[-0.222224793999942,13.650061704000052],[-0.234220351999966,13.508512415000041]]]}},{"type":"Feature","properties":{"shapeName":"Sud-Ouest","shapeISO":"BF-13","shapeID":"92566538B26761698110708","shapeGroup":"BFA","shapeType":"ADM1"},"geometry":{"type":"Polygon","coordinates":[[[-2.849569788999929,11.297441710000044],[-3.191817063999963,11.357074460000035],[-3.28998495899998,11.201917104000074],[-3.567114022999931,11.08466164500004],[-3.64515440699995,10.889656452000054],[-3.734508930999937,10.866845132000037],[-3.673098961999926,10.767335493000076],[-3.791761624999936,10.726881218000074],[-3.701466960999937,10.642876946000058],[-3.692721816999949,10.47728389100007],[-3.781848544999946,10.346169658000065],[-3.73843689499995,10.235847869000054],[-3.99997861199995,10.040588360000072],[-3.81404,9.88793],[-3.6417,9.95713],[-3.28116,9.85163],[-3.19547,9.92748],[-2.76318,9.40111],[-2.68992,9.48879],[-2.79565,9.7052],[-2.73568,9.82827],[-2.76253,10.2386],[-2.85403,10.31842],[-2.77635,10.41769],[-2.86988,10.45195],[-2.94306,10.70774],[-2.83433,11.00415],[-2.715943332999927,10.996498441000028],[-2.60619982299994,11.11255174300004],[-2.710206452999955,11.20344129700004],[-2.786290450999957,11.138420315000076],[-2.849569788999929,11.297441710000044]]]}}]}