{"type":"FeatureCollection","crs":{"type":"name","properties":{"name":"urn:ogc:def:crs:OGC:1.3:CRS84"}},"features":[{"type":"Feature","properties":{"shapeName":"Alta Verapaz","shapeISO":"GT-AV","shapeID":"53557124B24572600119042","shapeGroup":"GTM","shapeType":"ADM1"},"geometry":{"type":"Polygon","coordinates":[[[-89.41092590000004,15.8562893],[-89.49983240000003,15.84432],[-89.52802130000003,16.053069799999957],[-89.857901,15.904342],[-89.97865410000001,16.014391399999976],[-90.44221559999998,16.07402719999999],[-90.4239381,16.022295800000023],[-90.51119960000005,15.982653799999984],[-90.70107710000003,16.020475799999982],[-90.82069430000006,15.7488723],[-90.63016710000005,15.611605099999963],[-90.69127,15.36321],[-90.33499960000002,15.22623630000001],[-90.29036760000002,15.2940763],[-89.9172912,15.302113699999957],[-89.99200460000002,15.1418683],[-89.66609960000005,15.119660199999966],[-89.51204160000002,15.3634266],[-89.58285950000003,15.521983],[-89.41092590000004,15.8562893]]]}},{"type":"Feature","properties":{"shapeName":"Suchitep\u00e9quez","shapeISO":"GT-SU","shapeID":"53557124B97439913802456","shapeGroup":"GTM","shapeType":"ADM1"},"geometry":{"type":"Polygon","coordinates":[[[-91.11874360000006,14.515316299999974],[-91.26603660000008,14.5309333],[-91.33056660000003,14.643491400000023],[-91.50664550000008,14.6015224],[-91.48745759999998,14.71086230000002],[-91.66896438883879,14.124741675228584],[-91.53565540000007,14.044478699999978],[-91.46038980000002,14.304588799999955],[-91.32712560000007,14.398119400000013],[-91.3422626,14.317591300000025],[-91.14845260000007,14.2827253],[-91.11874360000006,14.515316299999974]]]}},{"type":"Feature","properties":{"shapeName":"El Progreso","shapeISO":"GT-PR","shapeID":"53557124B56180322240985","shapeGroup":"GTM","shapeType":"ADM1"},"geometry":{"type":"Polygon","coordinates":[[[-89.91989860000001,15.1402463],[-89.90663159999998,15.084543399999976],[-90.4044195,14.86681680000003],[-90.32163970000005,14.735006300000013],[-90.1922226,14.648486300000034],[-89.81941960000005,14.905629700000038],[-89.8652116,15.021614299999968],[-89.78060160000005,15.012164300000023],[-89.91989860000001,15.1402463]]]}},{"type":"Feature","properties":{"shapeName":"Zacapa","shapeISO":"GT-ZA","shapeID":"53557124B14274164057878","shapeGroup":"GTM","shapeType":"ADM1"},"geometry":{"type":"Polygon","coordinates":[[[-89.89299760000007,15.140331300000025],[-89.78060160000005,15.012164300000023],[-89.8652116,15.021614299999968],[-89.8633298,14.863403300000037],[-89.74777490000001,14.742078400000029],[-89.66645570000003,14.8780865],[-89.27258940000007,14.895775499999957],[-89.15663160000005,14.979753500000019],[-89.2297706,15.295554800000037],[-89.66609960000005,15.119660199999966],[-89.89299760000007,15.140331300000025]]]}},{"type":"Feature","properties":{"shapeName":"Pet\u00e9n","shapeISO":"GT-PE","shapeID":"53557124B7234641414324","shapeGroup":"GTM","shapeType":"ADM1"},"geometry":{"type":"Polygon","coordinates":[[[-89.49983240000003,15.84432],[-89.35492429999998,15.92050350000002],[-89.22620830000004,15.8957204],[-89.15688627615862,17.815625089107005],[-90.98771560000003,17.815343799999976],[-90.98743310000002,17.251291500000036],[-91.42877130000002,17.2185486],[-91.266447,17.170133],[-91.06562730000007,16.9028582],[-90.71425080000006,16.727063799999968],[-90.6311615,16.4783711],[-90.3883145,16.411483],[-90.44221559999998,16.07402719999999],[-89.97865410000001,16.014391399999976],[-89.857901,15.904342],[-89.52802130000003,16.053069799999957],[-89.49983240000003,15.84432]]]}},{"type":"Feature","properties":{"shapeName":"Quich\u00e9","shapeISO":"GT-QC","shapeID":"53557124B57493731306464","shapeGroup":"GTM","shapeType":"ADM1"},"geometry":{"type":"Polygon","coordinates":[[[-90.44221559999998,16.07402719999999],[-91.13238639999999,16.03050289999998],[-91.05155539999998,15.915273199999984],[-91.31603960000004,15.472215399999982],[-91.1466065,15.3744263],[-91.18867460000004,15.287269299999988],[-91.32616470000006,15.265021400000027],[-91.20503,15.11098],[-91.25807,15.12498],[-91.23875,14.94516],[-91.07167060000006,14.801934299999957],[-90.99709530000003,14.938476699999985],[-90.61511270000003,14.9014513],[-90.80904,15.23521],[-90.54196,15.20466],[-90.48016,15.32209],[-90.70799,15.3838],[-90.60458950000002,15.5072564],[-90.63016710000005,15.611605099999963],[-90.82069430000006,15.7488723],[-90.70107710000003,16.020475799999982],[-90.51119960000005,15.982653799999984],[-90.44221559999998,16.07402719999999]]]}},{"type":"Feature","properties":{"shapeName":"Chiquimula","shapeISO":"GT-CQ","shapeID":"53557124B25298484445247","shapeGroup":"GTM","shapeType":"ADM1"},"geometry":{"type":"Polygon","coordinates":[[[-89.72040020000006,14.750871499999977],[-89.64834550000003,14.70600840000004],[-89.68170830000003,14.5307132],[-89.50733490000005,14.509487],[-89.51048240000006,14.406747499999987],[-89.3553709591103,14.421382535056619],[-89.23891620000006,14.584642700000032],[-89.15354680000007,14.584237800000015],[-89.20080270000001,14.947797399999978],[-89.66645570000003,14.8780865],[-89.72040020000006,14.750871499999977]]]}},{"type":"Feature","properties":{"shapeName":"Sacatep\u00e9quez","shapeISO":"GT-SA","shapeID":"53557124B89655490483829","shapeGroup":"GTM","shapeType":"ADM1"},"geometry":{"type":"Polygon","coordinates":[[[-90.650548,14.452382400000012],[-90.66350129999998,14.586364400000022],[-90.6028879,14.588439300000015],[-90.75335660000006,14.72191230000001],[-90.8799975,14.471570400000015],[-90.80542290000002,14.3831843],[-90.650548,14.452382400000012]]]}},{"type":"Feature","properties":{"shapeName":"Guatemala","shapeISO":"GT-GU","shapeID":"53557124B7049276162389","shapeGroup":"GTM","shapeType":"ADM1"},"geometry":{"type":"Polygon","coordinates":[[[-90.39424130000002,14.8743638],[-90.62306260000001,14.8781253],[-90.75956770000006,14.735977399999982],[-90.6028879,14.588439300000015],[-90.66350129999998,14.586364400000022],[-90.67072210000005,14.4782954],[-90.58777660000005,14.42696340000004],[-90.57288350000006,14.256637300000012],[-90.43336460000005,14.3382763],[-90.41335259999998,14.473335300000027],[-90.32761360000006,14.46816440000002],[-90.20348360000004,14.675829200000027],[-90.39424130000002,14.8743638]],[[-90.53474311143717,14.422607457265528],[-90.6099127163607,14.489904424616366],[-90.5683480130711,14.485752471419826],[-90.53474311143717,14.422607457265528]]]}},{"type":"Feature","properties":{"shapeName":"Izabal","shapeISO":"GT-IZ","shapeID":"53557124B93889796431495","shapeGroup":"GTM","shapeType":"ADM1"},"geometry":{"type":"Polygon","coordinates":[[[-89.62686260000004,15.161490499999967],[-89.2578587,15.29783150000003],[-89.17561140000005,15.267155699999961],[-89.1606983,15.0722957],[-88.97445069403842,15.136017605507483],[-88.22704087626292,15.723140144486695],[-88.62049971351472,15.96411332002629],[-88.49122,15.850480100000023],[-88.56366203716534,15.85346047700708],[-88.60088907672186,15.69939622090492],[-88.77920758774182,15.800808785213054],[-88.77150738266089,15.789502351324362],[-88.77636592911192,15.773697503436239],[-88.88939424699238,15.684744699103874],[-88.99201960578908,15.664928052428444],[-88.98326807623648,15.508907198339099],[-89.03569734494488,15.462219924987856],[-89.30592015324157,15.35296686312239],[-89.35451254919586,15.469686024277156],[-89.41205781440375,15.453451083953677],[-89.37479656995775,15.506833458426776],[-89.07052463494489,15.58813388560755],[-88.92852741759212,15.732981106637471],[-88.74758420000006,15.826346],[-89.36484450000002,15.917606200000016],[-89.58285950000003,15.521983],[-89.51204160000002,15.3634266],[-89.62686260000004,15.161490499999967]],[[-89.34683826855459,15.407741588338013],[-89.3523599207006,15.407801921146717],[-89.34495280557098,15.409092431618625],[-89.34683826855459,15.407741588338013]]]}},{"type":"Feature","properties":{"shapeName":"Jalapa","shapeISO":"GT-JA","shapeID":"53557124B78393665096661","shapeGroup":"GTM","shapeType":"ADM1"},"geometry":{"type":"Polygon","coordinates":[[[-90.20348360000004,14.675829200000027],[-90.25740860000005,14.48274329999996],[-89.98487860000006,14.4318223],[-89.6919972,14.495908099999959],[-89.64834550000003,14.70600840000004],[-89.87395450000007,14.87186129999997],[-90.20348360000004,14.675829200000027]]]}},{"type":"Feature","properties":{"shapeName":"San Marcos","shapeISO":"GT-SM","shapeID":"53557124B78398693011322","shapeGroup":"GTM","shapeType":"ADM1"},"geometry":{"type":"Polygon","coordinates":[[[-91.56922170000001,15.22442430000001],[-91.8808596,15.361588200000035],[-92.07734160000003,15.27775150000003],[-92.11738053164594,15.42349897998702],[-92.20982144709744,15.26087124530057],[-92.05938095997794,15.06856871063346],[-92.15052573273238,14.986800402149118],[-92.14493510569257,14.663218492669465],[-92.22642863135783,14.532204525403706],[-92.16420813524175,14.486361931753049],[-92.0503085,14.565331300000032],[-92.14001459999999,14.616783299999973],[-92.05248250000002,14.706660399999986],[-91.7935635,14.738097399999976],[-91.67517859999998,14.953703299999958],[-91.7020796,15.1110064],[-91.56922170000001,15.22442430000001]]]}},{"type":"Feature","properties":{"shapeName":"Huehuetenango","shapeISO":"GT-HU","shapeID":"53557124B22904219543889","shapeGroup":"GTM","shapeType":"ADM1"},"geometry":{"type":"Polygon","coordinates":[[[-91.10779913990994,16.073355559506545],[-91.73123664445475,16.07271201147266],[-92.11738053164594,15.42349897998702],[-92.07734160000003,15.27775150000003],[-91.73092660000002,15.344668300000023],[-91.46615560000005,15.13395539999997],[-91.38820660000002,15.137300299999971],[-91.32141860000003,15.272004300000035],[-91.18867460000004,15.287269299999988],[-91.1466065,15.3744263],[-91.29267859999999,15.42770239999997],[-91.31282060000005,15.5356642],[-91.1836857,15.665609399999962],[-91.152446,15.8322279],[-91.09271560000005,15.800947800000024],[-91.046217,15.938090900000017],[-91.10779913990994,16.073355559506545]]]}},{"type":"Feature","properties":{"shapeName":"Totonicap\u00e1n","shapeISO":"GT-TO","shapeID":"53557124B40850127361414","shapeGroup":"GTM","shapeType":"ADM1"},"geometry":{"type":"Polygon","coordinates":[[[-91.319219,15.253658199999968],[-91.38820660000002,15.137300299999971],[-91.54853860000003,15.111358299999981],[-91.5573426,14.93815640000004],[-91.40355659999999,14.821033399999976],[-91.17531560000005,14.893421300000036],[-91.27182770000006,15.0353784],[-91.20503,15.11098],[-91.319219,15.253658199999968]]]}},{"type":"Feature","properties":{"shapeName":"Quetzaltenango","shapeISO":"GT-QZ","shapeID":"53557124B53470403358651","shapeGroup":"GTM","shapeType":"ADM1"},"geometry":{"type":"Polygon","coordinates":[[[-91.65702850000007,14.608321399999983],[-91.40355659999999,14.821033399999976],[-91.5573426,14.93815640000004],[-91.51154360000007,15.145452299999988],[-91.56922170000001,15.22442430000001],[-91.7020796,15.1110064],[-91.67517859999998,14.953703299999958],[-91.7935635,14.738097399999976],[-92.02750360000005,14.717221400000017],[-92.14001459999999,14.616783299999973],[-91.80720860000005,14.493969],[-91.68200660000005,14.7096684],[-91.65702850000007,14.608321399999983]]]}},{"type":"Feature","properties":{"shapeName":"Retalhuleu","shapeISO":"GT-RE","shapeID":"53557124B13979183410132","shapeGroup":"GTM","shapeType":"ADM1"},"geometry":{"type":"Polygon","coordinates":[[[-91.52253760000005,14.682417299999965],[-91.65702850000007,14.608321399999983],[-91.68200660000005,14.7096684],[-91.80720860000005,14.493969],[-92.0503085,14.565331300000032],[-92.16420813524175,14.486361931753049],[-91.6645076,14.123828299999978],[-91.52253760000005,14.682417299999965]]]}},{"type":"Feature","properties":{"shapeName":"Baja Verapaz","shapeISO":"GT-BV","shapeID":"53557124B73602535274933","shapeGroup":"GTM","shapeType":"ADM1"},"geometry":{"type":"Polygon","coordinates":[[[-90.48492460000004,15.283221299999987],[-90.55332,15.20228],[-90.80904,15.23521],[-90.61570150000007,14.8752732],[-90.31338510000006,14.876638],[-90.19351160000006,15.000057299999973],[-89.90198550000007,15.08832939999997],[-89.99200460000002,15.1418683],[-89.9424207,15.211137300000026],[-89.9172912,15.302113699999957],[-90.29036760000002,15.2940763],[-90.33096360000003,15.2259752],[-90.48492460000004,15.283221299999987]]]}},{"type":"Feature","properties":{"shapeName":"Solol\u00e1","shapeISO":"GT-SO","shapeID":"53557124B33357761119002","shapeGroup":"GTM","shapeType":"ADM1"},"geometry":{"type":"Polygon","coordinates":[[[-91.11874360000006,14.515316299999974],[-91.06850450000002,14.7889923],[-91.16100350000008,14.890483300000039],[-91.34783960000004,14.86435740000002],[-91.48500860000004,14.718111300000018],[-91.50664550000008,14.6015224],[-91.33056660000003,14.643491400000023],[-91.26603660000008,14.5309333],[-91.11874360000006,14.515316299999974]],[[-91.17222254311734,14.744138348813777],[-91.11706318981581,14.660265925587083],[-91.25283990105216,14.608828295285551],[-91.28623000255712,14.705494167622916],[-91.17222254311734,14.744138348813777]]]}},{"type":"Feature","properties":{"shapeName":"Escuintla","shapeISO":"GT-ES","shapeID":"53557124B88187939081538","shapeGroup":"GTM","shapeType":"ADM1"},"geometry":{"type":"Polygon","coordinates":[[[-91.53565540000007,14.044478699999978],[-91.18747150000006,13.926421499999979],[-90.62363740000006,13.92189809999999],[-90.59098070000005,14.15800929999999],[-90.50906360000006,14.199118199999987],[-90.60208860000003,14.207152300000018],[-90.58777660000005,14.42696340000004],[-90.74157750000005,14.463598299999962],[-90.80542290000002,14.3831843],[-90.8799975,14.471570400000015],[-90.9729616,14.37342030000001],[-90.99861160000007,14.439219299999976],[-91.10726170000004,14.409925400000027],[-91.14845260000007,14.2827253],[-91.37336760000005,14.374536399999986],[-91.53565540000007,14.044478699999978]]]}},{"type":"Feature","properties":{"shapeName":"Chimaltenango","shapeISO":"GT-CM","shapeID":"53557124B66453733615856","shapeGroup":"GTM","shapeType":"ADM1"},"geometry":{"type":"Polygon","coordinates":[[[-91.1007466,14.41241619999997],[-90.99861160000007,14.439219299999976],[-90.9729616,14.37342030000001],[-90.89121260000006,14.449787399999973],[-90.62133040000005,14.885398799999987],[-91.01164339999998,14.931963899999971],[-91.1007466,14.41241619999997]]]}},{"type":"Feature","properties":{"shapeName":"Jutiapa","shapeISO":"GT-JU","shapeID":"53557124B49951428420175","shapeGroup":"GTM","shapeType":"ADM1"},"geometry":{"type":"Polygon","coordinates":[[[-89.68170830000003,14.5307132],[-90.20021860000007,14.319976400000016],[-90.05288660000002,14.1258693],[-90.1467137,13.9616374],[-90.29877470000001,14.011274300000036],[-90.26265010000003,13.800180099999963],[-90.10230239201498,13.740488774214558],[-90.02257040000003,13.9393589],[-89.85635219999999,14.058340199999979],[-89.737473,14.031734],[-89.66669420000004,14.185353900000035],[-89.52544720000004,14.219980699999983],[-89.59178880000005,14.3329445],[-89.505731,14.508240600000015],[-89.68170830000003,14.5307132]]]}},{"type":"Feature","properties":{"shapeName":"Santa Rosa","shapeISO":"GT-SR","shapeID":"53557124B32978494135306","shapeGroup":"GTM","shapeType":"ADM1"},"geometry":{"type":"Polygon","coordinates":[[[-90.43336460000005,14.3382763],[-90.59683970000006,14.195343300000022],[-90.50906360000006,14.199118199999987],[-90.59098070000005,14.15800929999999],[-90.62363740000006,13.92189809999999],[-90.26265010000003,13.800180099999963],[-90.29877470000001,14.011274300000036],[-90.1467137,13.9616374],[-90.05288660000002,14.1258693],[-90.20021860000007,14.319976400000016],[-90.04692060000004,14.4298783],[-90.1435696,14.500388400000023],[-90.38302370000002,14.49542030000001],[-90.43336460000005,14.3382763]]]}}]}