{"type":"FeatureCollection","crs":{"type":"name","properties":{"name":"urn:ogc:def:crs:OGC:1.3:CRS84"}},"features":[{"type":"Feature","properties":{"shapeName":"Rio San Juan","shapeISO":"NI-SJ","shapeID":"94367503B51750357600402","shapeGroup":"NIC","shapeType":"ADM1"},"geometry":{"type":"Polygon","coordinates":[[[-85.1070424,11.6620433],[-85.1781571,11.0442243],[-84.9102332,10.943439],[-84.6805456,11.084402],[-84.4500298,10.9620993],[-84.358676,10.9958462],[-84.2027081,10.7817579],[-84.0210167,10.791619199999987],[-83.9319356,10.707672],[-83.6606933,10.820154399999982],[-83.9038009,11.1218053],[-84.1710711,11.1429055],[-84.5461288,11.45492710000007],[-84.54606830000002,11.773730399999952],[-84.66604489999999,11.875338399999986],[-84.80775239999998,11.877232399999988],[-85.1070424,11.6620433]]]}},{"type":"Feature","properties":{"shapeName":"Boaco","shapeISO":"NI-BO","shapeID":"94367503B94735481042460","shapeGroup":"NIC","shapeType":"ADM1"},"geometry":{"type":"Polygon","coordinates":[[[-85.9782652,12.534416],[-85.92854389999998,12.343895899999989],[-85.7943423,12.2791284],[-85.8172528,12.1492589],[-85.6703712,11.709600799999984],[-85.6178423,12.3435106],[-85.4622499,12.3106614],[-85.1078932,12.419740599999988],[-84.95216749999999,12.6263958],[-85.09601880000002,12.800408099999983],[-85.19103509999998,12.6229263],[-85.4086188,12.743047399999984],[-85.8850292,12.6351088],[-85.9782652,12.534416]]]}},{"type":"Feature","properties":{"shapeName":"Chontales","shapeISO":"NI-CO","shapeID":"94367503B5776780049527","shapeGroup":"NIC","shapeType":"ADM1"},"geometry":{"type":"Polygon","coordinates":[[[-84.80775239999998,11.877232399999988],[-84.5249107,11.8730355],[-84.7263254,12.001879699999975],[-84.8373922,12.4818277],[-84.9521993,12.624965899999989],[-85.1078932,12.419740599999988],[-85.4622499,12.3106614],[-85.6178423,12.3435106],[-85.6703712,11.709600799999984],[-85.1496873,11.3671432],[-85.1070424,11.6620433],[-84.80775239999998,11.877232399999988]]]}},{"type":"Feature","properties":{"shapeName":"Managua","shapeISO":"NI-MN","shapeID":"94367503B81766766698586","shapeGroup":"NIC","shapeType":"ADM1"},"geometry":{"type":"Polygon","coordinates":[[[-85.9782652,12.534416],[-86.3283968,12.628826699999987],[-86.3790921,12.5250489],[-86.3177108,12.3594636],[-86.6634188,12.0734956],[-86.44168936990216,11.720142491221656],[-86.1257099,12.141172299999988],[-85.8235639,12.211969299999986],[-85.7943423,12.2791284],[-85.92854389999998,12.343895899999989],[-85.9782652,12.534416]]]}},{"type":"Feature","properties":{"shapeName":"Leon","shapeISO":"NI-LE","shapeID":"94367503B39053627120026","shapeGroup":"NIC","shapeType":"ADM1"},"geometry":{"type":"Polygon","coordinates":[[[-86.282195,12.64102219999998],[-86.2883317,12.8478675],[-86.4338424,12.8981391],[-86.4921253,13.1142191],[-86.7045396,13.1147191],[-86.6694793,12.795121099999987],[-86.82011810000002,12.743434],[-86.9586404,12.5038027],[-87.1184206,12.4523537],[-86.7656101,12.192369899999981],[-86.7341401,12.09466],[-86.6835601,12.0062],[-86.66737617734022,11.990396218459853],[-86.48900270000001,12.2596875],[-86.3177108,12.3594636],[-86.3790921,12.5250489],[-86.282195,12.64102219999998]]]}},{"type":"Feature","properties":{"shapeName":"Chinandega","shapeISO":"NI-CI","shapeID":"94367503B84000172489696","shapeGroup":"NIC","shapeType":"ADM1"},"geometry":{"type":"Polygon","coordinates":[[[-86.6694793,12.795121099999987],[-86.70830439999999,13.2265936],[-86.82751559999998,13.3132651],[-87.0293179,12.9859259],[-87.30845472624745,12.987672554806553],[-87.3949989,12.9097011],[-87.5765085,13.0908911],[-87.6919444,12.9116819],[-87.07797412019087,12.401806478205986],[-87.11881780000002,12.461485],[-86.9586404,12.5038027],[-86.82011810000002,12.743434],[-86.6694793,12.795121099999987]]]}},{"type":"Feature","properties":{"shapeName":"Madriz","shapeISO":"NI-MD","shapeID":"94367503B56642323258301","shapeGroup":"NIC","shapeType":"ADM1"},"geometry":{"type":"Polygon","coordinates":[[[-86.7179889,13.1915274],[-86.55647720000002,13.4293999],[-86.2081497,13.39307439999998],[-86.08345309999999,13.46352919999998],[-86.0956434,13.567833499999983],[-86.2425228,13.6220494],[-86.55801330000001,13.571946299999988],[-86.74656559999998,13.6625237],[-86.7179889,13.1915274]]]}},{"type":"Feature","properties":{"shapeName":"Estelí","shapeISO":"NI-ES","shapeID":"94367503B38089883333909","shapeGroup":"NIC","shapeType":"ADM1"},"geometry":{"type":"Polygon","coordinates":[[[-86.3012056,12.8595732],[-86.0987487,13.0431576],[-86.261505,13.1864671],[-86.2081497,13.39307439999998],[-86.55647720000002,13.4293999],[-86.7361802,13.0973774],[-86.4921253,13.1142191],[-86.4338424,12.8981391],[-86.3012056,12.8595732]]]}},{"type":"Feature","properties":{"shapeName":"Nueva Segovia","shapeISO":"NI-NS","shapeID":"94367503B21824249781169","shapeGroup":"NIC","shapeType":"ADM1"},"geometry":{"type":"Polygon","coordinates":[[[-86.06876,13.4977718],[-85.8289183,13.5149269],[-85.75217940000002,13.8322313],[-86.0417241,13.9958632],[-86.0114358,14.0802514],[-86.15297810000001,14.035004],[-86.3322636,13.7691299],[-86.7715368,13.7530033],[-86.7860641,13.662249499999989],[-86.6076033,13.5846211],[-86.14934139999998,13.6177759],[-86.06876,13.4977718]]]}},{"type":"Feature","properties":{"shapeName":"Matagalpa (Departemento)","shapeISO":"NI-MT","shapeID":"94367503B41972548719200","shapeGroup":"NIC","shapeType":"ADM1"},"geometry":{"type":"Polygon","coordinates":[[[-85.12115859999999,12.7849663],[-85.187152,12.8143887],[-85.197355,12.979764199999956],[-85.07297309999998,13.1730761],[-85.269697,13.1458301],[-85.5051366,13.3459413],[-85.62435720000002,13.339403399999984],[-85.92113689999998,12.998823],[-86.12339420000002,13.039547099999984],[-86.3012056,12.8595732],[-86.2789794,12.6373952],[-85.9782652,12.534416],[-85.8850292,12.6351088],[-85.4086188,12.743047399999984],[-85.19103509999998,12.6229263],[-85.12115859999999,12.7849663]]]}},{"type":"Feature","properties":{"shapeName":"North Carribean Coast Autonomous Region","shapeISO":"NI-AN","shapeID":"94367503B67681727137385","shapeGroup":"NIC","shapeType":"ADM1"},"geometry":{"type":"MultiPolygon","coordinates":[[[[-85.3676396,13.1975626],[-84.96822610000002,13.087799400000101],[-84.7619351,13.226450299999978],[-84.14735370000001,13.311053],[-83.7828974,13.249365099999983],[-83.7809071,13.1289098],[-83.53993459999998,13.026399699999986],[-83.5715481,13.3288242],[-83.4911399,13.7916],[-83.19944,14.32824],[-83.3125774,14.7735325],[-83.1325617,14.9942229],[-83.501307,15.0108432],[-83.70159350000002,14.8241573],[-83.92356,14.7476775],[-84.109833,14.79084],[-84.1668377,14.7145012],[-84.2353928,14.760609899999984],[-84.2768698,14.6621507],[-84.363387,14.7165995],[-84.4685912,14.615845],[-84.701532,14.6644272],[-84.8154496,14.8287724],[-85.0284083,14.702998799999987],[-84.9951447,14.399821799999986],[-84.8276557,14.33502849999998],[-84.8733748,13.980543699999984],[-85.0668253,13.7374747],[-85.1649817,13.788496099999989],[-85.3751501,13.7005275],[-85.5101865,13.359834599999987],[-85.3676396,13.1975626]]],[[[-82.8166136,14.352788299999984],[-82.7663686,14.350065299999985],[-82.7519443,14.3501653],[-82.7343153,14.3759548],[-82.7360469,14.4039433],[-82.7695805,14.4200891],[-82.8166136,14.352788299999984]]]]}},{"type":"Feature","properties":{"shapeName":"South Atlantic Autonomous Region","shapeISO":"NI-AS","shapeID":"94367503B33867790321270","shapeGroup":"NIC","shapeType":"ADM1"},"geometry":{"type":"MultiPolygon","coordinates":[[[[-83.692879,11.988113],[-83.691017,11.998613300000036],[-83.69474759999996,11.993961300000082],[-83.692879,11.988113]]],[[[-83.7091,11.99867009999996],[-83.73902,11.87866],[-83.71560010000002,11.862920100000045],[-83.7091,11.99867009999996]]],[[[-83.04538009999996,12.186347599999978],[-83.06384,12.146239899999964],[-83.0317495,12.176888399999982],[-83.04538009999996,12.186347599999978]]],[[[-82.9791988,12.301901700000027],[-82.99005069999998,12.28823070000002],[-82.9720519,12.275929700000104],[-82.9791988,12.301901700000027]]],[[[-83.67667010000002,12.35794],[-83.66002119999999,12.374117400000078],[-83.66609009999996,12.389556300000043],[-83.67667010000002,12.35794]]],[[[-84.6004836,11.847503799999986],[-84.5461288,11.45492710000007],[-84.1710711,11.1429055],[-83.9038009,11.1218053],[-83.88523370000001,11.044175],[-83.8166991,11.051510399999982],[-83.74876780000002,10.962416300000063],[-83.72043489999999,10.942388300000024],[-83.7155802,10.943712600000024],[-83.874352,11.34295160000002],[-83.75088830000001,11.56096470000005],[-83.64219070000001,11.604197700000034],[-83.70242209999996,11.8544584],[-83.7814815,11.8000486],[-83.8404008,11.88052020000008],[-83.7655275,11.951579499999946],[-83.8035295,12.061012399999978],[-83.68390010000002,12.00175],[-83.61801970000002,12.352124],[-83.678432,12.271294600000019],[-83.7837486,12.488227700000062],[-83.59573409999997,12.623755899999978],[-83.62308410000001,12.8183436],[-83.5429301,12.77298],[-83.64170719999997,12.3745663],[-83.5018331,12.385340100000052],[-83.48616239999998,12.461527300000043],[-83.53993459999998,13.026399699999986],[-83.7809071,13.1289098],[-83.7828974,13.249365099999983],[-84.14735370000001,13.311053],[-84.7619351,13.226450299999978],[-84.94944270000002,13.0919245],[-85.10567570000003,13.12728219999999],[-85.197355,12.979764199999956],[-85.187152,12.8143887],[-85.02261360000003,12.75527970000004],[-84.8418019,12.4910993],[-84.7263254,12.001879699999975],[-84.5249107,11.8730355],[-84.6004836,11.847503799999986]]]]}},{"type":"Feature","properties":{"shapeName":"Jinotega (Departamento)","shapeISO":"NI-JI","shapeID":"94367503B48061873039178","shapeGroup":"NIC","shapeType":"ADM1"},"geometry":{"type":"Polygon","coordinates":[[[-86.2081497,13.39307439999998],[-86.261505,13.1864671],[-85.9445153,12.989556],[-85.62435720000002,13.339403399999984],[-85.5051366,13.3459413],[-85.3751501,13.7005275],[-85.1649817,13.788496099999989],[-85.0668253,13.7374747],[-84.8733748,13.980543699999984],[-84.8276557,14.33502849999998],[-84.977675,14.3680757],[-84.99015359999999,14.5958117],[-85.1516051,14.571808],[-85.1844924,14.250446499999985],[-85.339429,14.2488468],[-85.404112,14.123120699999982],[-85.7533676,13.9677958],[-85.8289183,13.5149269],[-85.9081273,13.4642063],[-86.0203586,13.5171085],[-86.2081497,13.39307439999998]]]}},{"type":"Feature","properties":{"shapeName":"Carazo","shapeISO":"NI-CA","shapeID":"94367503B26309730772905","shapeGroup":"NIC","shapeType":"ADM1"},"geometry":{"type":"Polygon","coordinates":[[[-86.44168936990216,11.720142491221656],[-86.17274897220088,11.518540987085915],[-86.0841723,11.828649899999988],[-86.29310560000002,11.9544292],[-86.44168936990216,11.720142491221656]]]}},{"type":"Feature","properties":{"shapeName":"Granada","shapeISO":"NI-GR","shapeID":"94367503B26829213243408","shapeGroup":"NIC","shapeType":"ADM1"},"geometry":{"type":"Polygon","coordinates":[[[-85.82469649999999,12.2107451],[-86.0149781,12.15028629999998],[-85.9604036,12.0917789],[-86.08700469999998,11.8742168],[-86.1087539,11.612727799999988],[-85.6703712,11.709600799999984],[-85.82469649999999,12.2107451]]]}},{"type":"Feature","properties":{"shapeName":"Masaya","shapeISO":"NI-MS","shapeID":"94367503B55220527661789","shapeGroup":"NIC","shapeType":"ADM1"},"geometry":{"type":"Polygon","coordinates":[[[-86.29310560000002,11.9544292],[-86.0986712,11.8340404],[-85.9604036,12.0917789],[-86.1257099,12.141172299999988],[-86.21079509999998,12.0643312],[-86.1906802,11.980477],[-86.29310560000002,11.9544292]]]}},{"type":"Feature","properties":{"shapeName":"Rivas","shapeISO":"NI-RI","shapeID":"94367503B70144399425035","shapeGroup":"NIC","shapeType":"ADM1"},"geometry":{"type":"Polygon","coordinates":[[[-85.1496873,11.3671432],[-85.6703712,11.709600799999984],[-85.882372,11.712635499999983],[-86.1723146,11.524747499999986],[-85.7085112,11.080149599999986],[-85.6099005,11.2195684],[-85.1781571,11.0442243],[-85.1496873,11.3671432]]]}}]}