{"type":"FeatureCollection","crs":{"type":"name","properties":{"name":"urn:ogc:def:crs:OGC:1.3:CRS84"}},"features":[{"type":"Feature","properties":{"shapeName":"Dakar","shapeISO":"SN-DK","shapeID":"71046170B16569890219484","shapeGroup":"SEN","shapeType":"ADM1"},"geometry":{"type":"MultiPolygon","coordinates":[[[[-17.396581353999977,14.666450475000033],[-17.400764248999963,14.668917114000067],[-17.39792165299997,14.663123408000047],[-17.396581353999977,14.666450475000033]]],[[[-17.513055812999937,14.754908069000066],[-17.515159482999934,14.757142013000077],[-17.51671121299995,14.754940497000064],[-17.513055812999937,14.754908069000066]]],[[[-17.144621292999943,14.586814029000038],[-17.176756774999944,14.886339839000073],[-17.419253887999957,14.777186378000067],[-17.502171519999933,14.751748017000068],[-17.52843134699998,14.752347480000026],[-17.433315682999933,14.646582103000071],[-17.414281485999936,14.733828219000031],[-17.274098941999966,14.712136646000033],[-17.144621292999943,14.586814029000038]]]]}},{"type":"Feature","properties":{"shapeName":"Diourbel","shapeISO":"SN-DB","shapeID":"71046170B89912390768536","shapeGroup":"SEN","shapeType":"ADM1"},"geometry":{"type":"Polygon","coordinates":[[[-16.177063449999935,14.964045358000021],[-16.429979283999955,15.02707435900004],[-16.65373907099996,14.958612634000076],[-16.620915409999952,14.640106236000065],[-15.999971607999953,14.514397491000068],[-15.818823717999976,14.579433683000047],[-15.765378752999936,14.752393227000027],[-15.46221817099996,14.629089330000056],[-15.437972190999972,14.823883876000025],[-15.67345260899998,14.870598818000076],[-15.805585502999975,14.997382001000062],[-16.177063449999935,14.964045358000021]]]}},{"type":"Feature","properties":{"shapeName":"Fatick","shapeISO":"SN-FK","shapeID":"71046170B84527172065489","shapeGroup":"SEN","shapeType":"ADM1"},"geometry":{"type":"Polygon","coordinates":[[[-16.52542628799995,14.607615702000032],[-16.551891608999938,14.492406051000046],[-16.705262437999977,14.398268204000033],[-16.792545573999973,14.131266766000067],[-16.76120316099997,13.835424705000037],[-16.54845755799994,13.593704990000049],[-16.08996955999993,13.59346559900007],[-16.246138539999947,13.79740619100005],[-16.19019940399994,13.882201923000025],[-16.23054901699993,14.100592913000071],[-16.38114229599995,14.154872864000026],[-16.35189059499993,14.256979103000049],[-16.12876852499994,14.369975957000065],[-15.802824434999934,14.376829416000078],[-15.46221817099996,14.629089330000056],[-15.765378752999936,14.752393227000027],[-15.818823717999976,14.579433683000047],[-15.999971607999953,14.514397491000068],[-16.52542628799995,14.607615702000032]]]}},{"type":"Feature","properties":{"shapeName":"Kaffrine","shapeISO":"SN-KA","shapeID":"71046170B9856693808493","shapeGroup":"SEN","shapeType":"ADM1"},"geometry":{"type":"Polygon","coordinates":[[[-15.46221817099996,14.629089330000056],[-15.691413076999936,14.477745162000076],[-15.690015328999948,14.296641900000054],[-15.801387742999964,14.293024277000029],[-15.851906270999962,14.174946199000033],[-15.641361761999974,13.779420920000064],[-15.581109377999951,13.831008945000065],[-15.41442792099997,13.743161160000056],[-15.21638937299997,13.751479921000055],[-15.061256310999966,13.82828988600005],[-14.833594952999931,13.76949449500006],[-14.602421958999969,13.940998971000056],[-14.62661103399995,14.566944511000031],[-14.910398274999977,14.703571282000041],[-15.02380717699998,14.612530461000063],[-15.44966119299994,14.723187989000053],[-15.46221817099996,14.629089330000056]]]}},{"type":"Feature","properties":{"shapeName":"Kaolack","shapeISO":"SN-KL","shapeID":"71046170B19471834738959","shapeGroup":"SEN","shapeType":"ADM1"},"geometry":{"type":"Polygon","coordinates":[[[-16.08996955999993,13.59346559900007],[-15.474700447999965,13.591744319000043],[-15.439273447999938,13.798192564000033],[-15.635298747999968,13.774608396000076],[-15.86290160699997,14.110110167000073],[-15.801387742999964,14.293024277000029],[-15.690015328999948,14.296641900000054],[-15.70628286699997,14.493965783000021],[-15.802824434999934,14.376829416000078],[-16.12876852499994,14.369975957000065],[-16.36783807599994,14.227247534000071],[-16.38114229599995,14.154872864000026],[-16.23360517699996,14.11258248100006],[-16.19019940399994,13.882201923000025],[-16.246138539999947,13.79740619100005],[-16.08996955999993,13.59346559900007]]]}},{"type":"Feature","properties":{"shapeName":"Kolda","shapeISO":"SN-KD","shapeID":"71046170B66864032803639","shapeGroup":"SEN","shapeType":"ADM1"},"geometry":{"type":"Polygon","coordinates":[[[-13.860532939999928,13.51091935200003],[-13.792675871999961,13.438295051000068],[-13.83946108899994,13.333479242000067],[-14.234962140999926,13.217880034000075],[-14.96064045299994,13.471613684000033],[-15.09012267299994,13.600462810000067],[-15.33908248399996,13.360249323000062],[-15.352937463999979,13.227985938000074],[-15.15768376699998,13.006745704000025],[-15.12243011299995,12.685808476000034],[-13.48522638999998,12.674477178000075],[-13.502100750999944,13.004578847000062],[-13.617421413999978,13.132334162000063],[-13.67493100799993,13.383416323000063],[-13.774075608999965,13.374243156000034],[-13.718304645999979,13.466495089000034],[-13.80502275799995,13.468495404000066],[-13.79036576599998,13.544944508000071],[-13.860532939999928,13.51091935200003]]]}},{"type":"Feature","properties":{"shapeName":"Louga","shapeISO":"SN-LG","shapeID":"71046170B63374102885919","shapeGroup":"SEN","shapeType":"ADM1"},"geometry":{"type":"Polygon","coordinates":[[[-15.44966119299994,14.723187989000053],[-15.02380717699998,14.612530461000063],[-14.910398274999977,14.703571282000041],[-14.820326423999973,14.65387243400005],[-14.708647887999973,14.831774088000031],[-14.780487849999929,15.020462918000021],[-14.523815268999954,15.079351706000068],[-14.572548771999948,15.114618078000035],[-14.496412385999975,15.37704031900006],[-14.764044127999966,15.42733590000006],[-14.739994089999982,15.690067887000055],[-14.516890298999954,15.805097916000022],[-14.594861547999926,15.933575715000075],[-15.580233575999955,16.000026905000027],[-15.580611543999964,15.926855750000072],[-15.825150762999954,16.18742916800005],[-16.27145904599996,15.86192234400005],[-16.525611237999954,15.83296868800005],[-16.81005442299994,15.328611224000042],[-16.615390728999955,15.144971823000049],[-16.453747087999943,15.359478875000036],[-16.360681108999927,15.327861424000048],[-16.177063449999935,14.964045358000021],[-15.805585502999975,14.997382001000062],[-15.67345260899998,14.870598818000076],[-15.437972190999972,14.823883876000025],[-15.44966119299994,14.723187989000053]]]}},{"type":"Feature","properties":{"shapeName":"Matam","shapeISO":"SN-MT","shapeID":"71046170B85295751834134","shapeGroup":"SEN","shapeType":"ADM1"},"geometry":{"type":"Polygon","coordinates":[[[-14.62874629099997,14.527970369000059],[-14.346162923999941,14.658583185000055],[-13.847090476999938,14.41377638800003],[-13.519082949999927,14.406433287000027],[-13.245206646999975,14.613431966000064],[-12.950199448999967,14.55945382300007],[-12.72208399699997,14.61270266300005],[-12.587049595999929,14.90450110300003],[-12.893435334999936,15.25129419800004],[-12.830720578999944,15.285202482000045],[-12.941067023999949,15.362056202000076],[-12.934490404999963,15.509116273000075],[-13.059520387999953,15.482761424000046],[-13.086661359999937,15.584142818000032],[-13.229395918999955,15.619579442000031],[-13.377735137999935,16.057171022000034],[-13.511272407999968,16.088842157000045],[-13.48634952499998,16.14814377700003],[-13.719019257999946,16.135659986000064],[-14.262223500999937,15.515914395000038],[-14.422236083999962,15.493816940000045],[-14.40555786899995,15.62030162700006],[-14.516890298999954,15.805097916000022],[-14.739994089999982,15.690067887000055],[-14.75243102099995,15.411528945000043],[-14.496412385999975,15.37704031900006],[-14.572548771999948,15.114618078000035],[-14.523815268999954,15.079351706000068],[-14.780487849999929,15.020462918000021],[-14.708647887999973,14.831774088000031],[-14.84929819499996,14.631479174000049],[-14.62874629099997,14.527970369000059]]]}},{"type":"Feature","properties":{"shapeName":"Saint Louis","shapeISO":"SN-SL","shapeID":"71046170B37999982332216","shapeGroup":"SEN","shapeType":"ADM1"},"geometry":{"type":"Polygon","coordinates":[[[-14.594861547999926,15.933575715000075],[-14.40555786899995,15.62030162700006],[-14.422236083999962,15.493816940000045],[-14.262223500999937,15.515914395000038],[-13.742287086999966,16.046100608000074],[-13.702270601999942,16.176005151000027],[-13.851680398999974,16.10687691000004],[-13.974211167999954,16.22151894800004],[-13.968798225999933,16.333629746000042],[-14.333003555999937,16.568712693000066],[-14.337543779999976,16.641494241000032],[-14.937645281999949,16.633628937000026],[-14.986136983999927,16.693734722000045],[-15.03200183499996,16.62956789200007],[-15.096620306999966,16.677685041000075],[-15.117511427999943,16.577376997000044],[-15.399118664999946,16.535661763000064],[-15.468859057999964,16.59227686400004],[-15.70224314099994,16.47138719800006],[-16.051249747999975,16.479543240000055],[-16.115096456999936,16.55721531200004],[-16.283995021999942,16.506380423000053],[-16.505330165999965,16.067812696000033],[-16.525611237999954,15.83296868800005],[-16.27145904599996,15.86192234400005],[-15.825150762999954,16.18742916800005],[-15.580611543999964,15.926855750000072],[-15.580233575999955,16.000026905000027],[-14.865250870999944,16.000451578000025],[-14.594861547999926,15.933575715000075]]]}},{"type":"Feature","properties":{"shapeName":"Sedhiou","shapeISO":"SN-SE","shapeID":"71046170B19178449543377","shapeGroup":"SEN","shapeType":"ADM1"},"geometry":{"type":"Polygon","coordinates":[[[-15.33908248399996,13.360249323000062],[-15.805109712999979,13.34946767100007],[-15.803605682999944,13.167100662000053],[-15.932696247999957,13.122613662000049],[-16.023485747999928,12.749082731000044],[-15.923009620999949,12.466142110000021],[-15.681125561999977,12.425418630000024],[-15.12243011299995,12.685808476000034],[-15.112715236999975,12.897451509000064],[-15.254586720999953,13.178043583000033],[-15.350916137999945,13.221550528000023],[-15.33908248399996,13.360249323000062]]]}},{"type":"Feature","properties":{"shapeName":"Tambacounda","shapeISO":"SN-TC","shapeID":"71046170B85662395344337","shapeGroup":"SEN","shapeType":"ADM1"},"geometry":{"type":"Polygon","coordinates":[[[-14.833594952999931,13.76949449500006],[-14.781739372999937,13.654229869000062],[-14.550643893999961,13.651477716000045],[-14.320908718999931,13.457181694000042],[-13.977464564999934,13.58054252200003],[-13.788088777999974,13.543884781000031],[-13.80502275799995,13.468495404000066],[-13.718304645999979,13.466495089000034],[-13.774075608999965,13.374243156000034],[-13.67493100799993,13.383416323000063],[-13.68956770099993,13.29068436800003],[-13.463438477999944,12.897583732000044],[-13.48522638999998,12.674477178000075],[-13.322677032999934,12.642080403000023],[-13.125847686999975,12.639521629000058],[-13.09021106199998,12.702428819000033],[-13.208437433999961,13.050180521000073],[-12.93023154399998,13.081669216000023],[-12.813495114999967,12.996484372000054],[-12.675827839999954,13.175944199000071],[-12.231858466999938,13.322260399000072],[-12.243127271999981,13.461013098000024],[-12.018496661999961,13.311145448000048],[-11.865205969999977,13.43476577000007],[-12.074145982999937,13.719975254000076],[-11.950949804999937,13.809893686000066],[-11.933144312999957,13.924414045000049],[-12.010523324999951,13.987979730000063],[-12.02436978399993,14.284496098000034],[-12.198818255999981,14.404764337000074],[-12.157596806999948,14.686795370000027],[-12.658325269999978,15.110273392000067],[-12.587049595999929,14.90450110300003],[-12.65430172999993,14.704456913000058],[-12.796710924999957,14.581379501000072],[-13.245206646999975,14.613431966000064],[-13.519082949999927,14.406433287000027],[-13.847090476999938,14.41377638800003],[-14.346162923999941,14.658583185000055],[-14.62874629099997,14.527970369000059],[-14.583262813999966,13.995507119000024],[-14.833594952999931,13.76949449500006]]]}},{"type":"Feature","properties":{"shapeName":"Thies","shapeISO":"SN-TH","shapeID":"71046170B89315153043645","shapeGroup":"SEN","shapeType":"ADM1"},"geometry":{"type":"Polygon","coordinates":[[[-17.144621292999943,14.586814029000038],[-16.754581480999946,14.066860726000073],[-16.705262437999977,14.398268204000033],[-16.51899762599993,14.579764061000049],[-16.620915409999952,14.640106236000065],[-16.68708862699998,14.929275732000065],[-16.429979283999955,15.02707435900004],[-16.177063449999935,14.964045358000021],[-16.282167541999968,15.267032390000054],[-16.452727382999967,15.36019052100005],[-16.615390728999955,15.144971823000049],[-16.81005442299994,15.328611224000042],[-17.176756774999944,14.886339839000073],[-17.144621292999943,14.586814029000038]]]}},{"type":"Feature","properties":{"shapeName":"Ziguinchor","shapeISO":"SN-ZG","shapeID":"71046170B26251724010642","shapeGroup":"SEN","shapeType":"ADM1"},"geometry":{"type":"Polygon","coordinates":[[[-15.895001861999958,13.168208719000063],[-16.703168757999947,13.163259250000067],[-16.793999072999952,12.486464823000063],[-16.72137136599997,12.337969220000048],[-16.381001681999976,12.36252574100007],[-16.20276645599995,12.461252848000072],[-15.889113066999982,12.45018803000005],[-16.023485747999928,12.749082731000044],[-15.895001861999958,13.168208719000063]]]}},{"type":"Feature","properties":{"shapeName":"Kedougou","shapeISO":"SN-KE","shapeID":"71046170B5066698136661","shapeGroup":"SEN","shapeType":"ADM1"},"geometry":{"type":"Polygon","coordinates":[[[-13.12325895999993,12.641112276000058],[-13.04829237599995,12.625516193000067],[-13.060884132999945,12.485270318000062],[-12.894110823999938,12.555541832000074],[-12.765439104999928,12.435549347000062],[-12.449577984999962,12.40023082600004],[-12.357325056999969,12.307766467000022],[-11.899295991999963,12.449904470000035],[-11.767213795999965,12.386049498000034],[-11.374993304999975,12.418555479000077],[-11.449393978999979,12.675056529000074],[-11.368603561999976,12.737762859000043],[-11.41195238399996,12.84815635800004],[-11.348089117999962,12.943313013000022],[-11.626926914999956,13.39382930100004],[-12.018496661999961,13.311145448000048],[-12.243127271999981,13.461013098000024],[-12.231858466999938,13.322260399000072],[-12.675827839999954,13.175944199000071],[-12.813495114999967,12.996484372000054],[-12.93023154399998,13.081669216000023],[-13.208437433999961,13.050180521000073],[-13.097371624999937,12.817231198000059],[-13.12325895999993,12.641112276000058]]]}}]}